[{"OBJECT_NAME":"STRIX-4","OBJECT_ID":"2024-137A","EPOCH":"2026-03-09T15:41:49.501824","MEAN_MOTION":15.29026224,"ECCENTRICITY":0.00168396,"INCLINATION":43.0134,"RA_OF_ASC_NODE":129.8162,"ARG_OF_PERICENTER":5.2738,"MEAN_ANOMALY":354.8289,"EPHEMERIS_TYPE":0,"CLASSIFICATION_TYPE":"U","NORAD_CAT_ID":60352,"ELEMENT_SET_NO":999,"REV_AT_EPOCH":8876,"BSTAR":0.00071819834,"MEAN_MOTION_DOT":0.0002053,"MEAN_MOTION_DDOT":0},{"OBJECT_NAME":"STARLINK-34050","OBJECT_ID":"2025-124Q","EPOCH":"2026-03-09T10:51:05.513760","MEAN_MOTION":15.27588946,"ECCENTRICITY":6.71e-5,"INCLINATION":42.9993,"RA_OF_ASC_NODE":123.0924,"ARG_OF_PERICENTER":244.0897,"MEAN_ANOMALY":115.9885,"EPHEMERIS_TYPE":0,"CLASSIFICATION_TYPE":"U","NORAD_CAT_ID":64331,"ELEMENT_SET_NO":999,"REV_AT_EPOCH":4280,"BSTAR":0.00081012563,"MEAN_MOTION_DOT":0.00022104,"MEAN_MOTION_DDOT":0}]
